STARLINK-33942          
1 63974U 25099Y   25348.22551426  .00036855  00000+0  13419-2 0  9999
2 63974  43.0009 295.5788 0001333 300.2741  59.7979 15.27586048 34300
STARLINK-34139          
1 63975U 25099Z   25348.28704627  .00043614  00000+0  15844-2 0  9994
2 63975  43.0024 295.1812 0001487 277.8543  82.2140 15.27594721 34220
STARLINK-34090          
1 63976U 25099AA  25348.21780498  .00044045  00000+0  15996-2 0  9995
2 63976  42.9993 295.5182 0001489 275.3109  84.7573 15.27600452 34216
STARLINK-34105          
1 63977U 25099AB  25348.28061808  .00033567  00000+0  12232-2 0  9997
2 63977  43.0004 295.1326 0001335 249.6616 110.4092 15.27596026 34220
STARLINK-33642          
1 63978U 25099AC  25348.20753754  .00045393  00000+0  16507-2 0  9997
2 63978  43.0006 295.4460 0001611 301.5653  58.5041 15.27544128 34212
STARLINK-34045          
1 63979U 25099AD  25348.20367182  .00033455  00000+0  12197-2 0  9991
2 63979  43.0010 295.4147 0001680 251.1482 108.9188 15.27581498 34219
STARLINK-33871          
1 63994U 25101A   25347.65493052  .00027433  00000+0  10022-2 0  9990
2 63994  43.0028 124.1603 0002162 283.8392  76.2219 15.27596400 33825
STARLINK-34154          
1 63995U 25101B   25348.34591414  .00030686  00000+0  11198-2 0  9998
2 63995  42.9993 119.8908 0000768  53.0202 307.0720 15.27586680 34003
STARLINK-34158          
1 63996U 25101C   25348.07665833  .00049238  00000+0  17873-2 0  9995
2 63996  42.9984 121.3460 0001297 298.2996  61.7725 15.27571826 33965
STARLINK-34165          
1 63997U 25101D   25348.06508698  .00025765  00000+0  94193-3 0  9990
2 63997  42.9977 121.2159 0002996 280.4187  79.6327 15.27599012 33967
STARLINK-34150          
1 63998U 25101E   25348.10492171  .00038248  00000+0  13903-2 0  9993
2 63998  43.0012 121.5228 0001792 276.7773  83.2875 15.27625677 33968
STARLINK-34169          
1 63999U 25101F   25348.07536816  .00027355  00000+0  10000-2 0  9997
2 63999  42.9976 121.2950 0000861 290.8808  69.1951 15.27576786 33961
STARLINK-34152          
1 64000U 25101G   25348.34333949  .00028499  00000+0  10408-2 0  9995
2 64000  42.9964 119.8688 0000706 302.3841  57.6942 15.27590952 34006
STARLINK-33927          
1 64001U 25101H   25347.79469397  .00016216  00000+0  59691-3 0  9993
2 64001  42.9996 123.4929 0001607 277.3599  82.7070 15.27611639 33919
STARLINK-33898          
1 64002U 25101J   25347.65621866  .00030290  00000+0  11043-2 0  9996
2 64002  42.9998 124.1706 0001256 271.3035  88.7673 15.27621957 33898
STARLINK-33928          
1 64003U 25101K   25348.05994631  .00019789  00000+0  72636-3 0  9991
2 64003  42.9971 121.1769 0000670 256.7719 103.3058 15.27594727 33964
