[{"OBJECT_NAME":"STARLINK-33942","OBJECT_ID":"2025-099Y","EPOCH":"2025-12-14T05:24:44.432064","MEAN_MOTION":15.27586048,"ECCENTRICITY":0.00013335,"INCLINATION":43.0009,"RA_OF_ASC_NODE":295.5788,"ARG_OF_PERICENTER":300.2741,"MEAN_ANOMALY":59.7979,"EPHEMERIS_TYPE":0,"CLASSIFICATION_TYPE":"U","NORAD_CAT_ID":63974,"ELEMENT_SET_NO":999,"REV_AT_EPOCH":3430,"BSTAR":0.0013418937,"MEAN_MOTION_DOT":0.00036855,"MEAN_MOTION_DDOT":0},{"OBJECT_NAME":"STARLINK-34139","OBJECT_ID":"2025-099Z","EPOCH":"2025-12-14T06:53:20.797728","MEAN_MOTION":15.27594721,"ECCENTRICITY":0.00014877,"INCLINATION":43.0024,"RA_OF_ASC_NODE":295.1812,"ARG_OF_PERICENTER":277.8543,"MEAN_ANOMALY":82.214,"EPHEMERIS_TYPE":0,"CLASSIFICATION_TYPE":"U","NORAD_CAT_ID":63975,"ELEMENT_SET_NO":999,"REV_AT_EPOCH":3422,"BSTAR":0.0015843804,"MEAN_MOTION_DOT":0.00043614,"MEAN_MOTION_DDOT":0},{"OBJECT_NAME":"STARLINK-34090","OBJECT_ID":"2025-099AA","EPOCH":"2025-12-14T05:13:38.350272","MEAN_MOTION":15.27600452,"ECCENTRICITY":0.00014899,"INCLINATION":42.9993,"RA_OF_ASC_NODE":295.5182,"ARG_OF_PERICENTER":275.3109,"MEAN_ANOMALY":84.7573,"EPHEMERIS_TYPE":0,"CLASSIFICATION_TYPE":"U","NORAD_CAT_ID":63976,"ELEMENT_SET_NO":999,"REV_AT_EPOCH":3421,"BSTAR":0.0015995619,"MEAN_MOTION_DOT":0.00044045,"MEAN_MOTION_DDOT":0},{"OBJECT_NAME":"STARLINK-34105","OBJECT_ID":"2025-099AB","EPOCH":"2025-12-14T06:44:05.402112","MEAN_MOTION":15.27596026,"ECCENTRICITY":0.00013357,"INCLINATION":43.0004,"RA_OF_ASC_NODE":295.1326,"ARG_OF_PERICENTER":249.6616,"MEAN_ANOMALY":110.4092,"EPHEMERIS_TYPE":0,"CLASSIFICATION_TYPE":"U","NORAD_CAT_ID":63977,"ELEMENT_SET_NO":999,"REV_AT_EPOCH":3422,"BSTAR":0.0012231875,"MEAN_MOTION_DOT":0.00033567,"MEAN_MOTION_DDOT":0},{"OBJECT_NAME":"STARLINK-33642","OBJECT_ID":"2025-099AC","EPOCH":"2025-12-14T04:58:51.243456","MEAN_MOTION":15.27544128,"ECCENTRICITY":0.00016113,"INCLINATION":43.0006,"RA_OF_ASC_NODE":295.446,"ARG_OF_PERICENTER":301.5653,"MEAN_ANOMALY":58.5041,"EPHEMERIS_TYPE":0,"CLASSIFICATION_TYPE":"U","NORAD_CAT_ID":63978,"ELEMENT_SET_NO":999,"REV_AT_EPOCH":3421,"BSTAR":0.0016507438,"MEAN_MOTION_DOT":0.00045393,"MEAN_MOTION_DDOT":0},{"OBJECT_NAME":"STARLINK-34045","OBJECT_ID":"2025-099AD","EPOCH":"2025-12-14T04:53:17.245248","MEAN_MOTION":15.27581498,"ECCENTRICITY":0.00016803,"INCLINATION":43.001,"RA_OF_ASC_NODE":295.4147,"ARG_OF_PERICENTER":251.1482,"MEAN_ANOMALY":108.9188,"EPHEMERIS_TYPE":0,"CLASSIFICATION_TYPE":"U","NORAD_CAT_ID":63979,"ELEMENT_SET_NO":999,"REV_AT_EPOCH":3421,"BSTAR":0.0012196837,"MEAN_MOTION_DOT":0.00033455,"MEAN_MOTION_DDOT":0},{"OBJECT_NAME":"STARLINK-33871","OBJECT_ID":"2025-101A","EPOCH":"2025-12-13T15:43:05.996928","MEAN_MOTION":15.275964,"ECCENTRICITY":0.00021628,"INCLINATION":43.0028,"RA_OF_ASC_NODE":124.1603,"ARG_OF_PERICENTER":283.8392,"MEAN_ANOMALY":76.2219,"EPHEMERIS_TYPE":0,"CLASSIFICATION_TYPE":"U","NORAD_CAT_ID":63994,"ELEMENT_SET_NO":999,"REV_AT_EPOCH":3382,"BSTAR":0.0010022031,"MEAN_MOTION_DOT":0.00027433,"MEAN_MOTION_DDOT":0},{"OBJECT_NAME":"STARLINK-34154","OBJECT_ID":"2025-101B","EPOCH":"2025-12-14T08:18:06.981696","MEAN_MOTION":15.2758668,"ECCENTRICITY":7.682e-5,"INCLINATION":42.9993,"RA_OF_ASC_NODE":119.8908,"ARG_OF_PERICENTER":53.0202,"MEAN_ANOMALY":307.072,"EPHEMERIS_TYPE":0,"CLASSIFICATION_TYPE":"U","NORAD_CAT_ID":63995,"ELEMENT_SET_NO":999,"REV_AT_EPOCH":3400,"BSTAR":0.0011197807,"MEAN_MOTION_DOT":0.00030686,"MEAN_MOTION_DDOT":0},{"OBJECT_NAME":"STARLINK-34158","OBJECT_ID":"2025-101C","EPOCH":"2025-12-14T01:50:23.279712","MEAN_MOTION":15.27571826,"ECCENTRICITY":0.00012974,"INCLINATION":42.9984,"RA_OF_ASC_NODE":121.346,"ARG_OF_PERICENTER":298.2996,"MEAN_ANOMALY":61.7725,"EPHEMERIS_TYPE":0,"CLASSIFICATION_TYPE":"U","NORAD_CAT_ID":63996,"ELEMENT_SET_NO":999,"REV_AT_EPOCH":3396,"BSTAR":0.0017873352,"MEAN_MOTION_DOT":0.00049238,"MEAN_MOTION_DDOT":0},{"OBJECT_NAME":"STARLINK-34165","OBJECT_ID":"2025-101D","EPOCH":"2025-12-14T01:33:43.515072","MEAN_MOTION":15.27599012,"ECCENTRICITY":0.00029963,"INCLINATION":42.9977,"RA_OF_ASC_NODE":121.2159,"ARG_OF_PERICENTER":280.4187,"MEAN_ANOMALY":79.6327,"EPHEMERIS_TYPE":0,"CLASSIFICATION_TYPE":"U","NORAD_CAT_ID":63997,"ELEMENT_SET_NO":999,"REV_AT_EPOCH":3396,"BSTAR":0.00094192764,"MEAN_MOTION_DOT":0.00025765,"MEAN_MOTION_DDOT":0},{"OBJECT_NAME":"STARLINK-34150","OBJECT_ID":"2025-101E","EPOCH":"2025-12-14T02:31:05.235744","MEAN_MOTION":15.27625677,"ECCENTRICITY":0.00017927,"INCLINATION":43.0012,"RA_OF_ASC_NODE":121.5228,"ARG_OF_PERICENTER":276.7773,"MEAN_ANOMALY":83.2875,"EPHEMERIS_TYPE":0,"CLASSIFICATION_TYPE":"U","NORAD_CAT_ID":63998,"ELEMENT_SET_NO":999,"REV_AT_EPOCH":3396,"BSTAR":0.0013902708,"MEAN_MOTION_DOT":0.00038248,"MEAN_MOTION_DDOT":0},{"OBJECT_NAME":"STARLINK-34169","OBJECT_ID":"2025-101F","EPOCH":"2025-12-14T01:48:31.809024","MEAN_MOTION":15.27576786,"ECCENTRICITY":8.619e-5,"INCLINATION":42.9976,"RA_OF_ASC_NODE":121.295,"ARG_OF_PERICENTER":290.8808,"MEAN_ANOMALY":69.1951,"EPHEMERIS_TYPE":0,"CLASSIFICATION_TYPE":"U","NORAD_CAT_ID":63999,"ELEMENT_SET_NO":999,"REV_AT_EPOCH":3396,"BSTAR":0.0010000043,"MEAN_MOTION_DOT":0.00027355,"MEAN_MOTION_DDOT":0},{"OBJECT_NAME":"STARLINK-34152","OBJECT_ID":"2025-101G","EPOCH":"2025-12-14T08:14:24.531936","MEAN_MOTION":15.27590952,"ECCENTRICITY":7.065e-5,"INCLINATION":42.9964,"RA_OF_ASC_NODE":119.8688,"ARG_OF_PERICENTER":302.3841,"MEAN_ANOMALY":57.6942,"EPHEMERIS_TYPE":0,"CLASSIFICATION_TYPE":"U","NORAD_CAT_ID":64000,"ELEMENT_SET_NO":999,"REV_AT_EPOCH":3400,"BSTAR":0.0010408143,"MEAN_MOTION_DOT":0.00028499,"MEAN_MOTION_DDOT":0},{"OBJECT_NAME":"STARLINK-33927","OBJECT_ID":"2025-101H","EPOCH":"2025-12-13T19:04:21.559008","MEAN_MOTION":15.27611639,"ECCENTRICITY":0.00016077,"INCLINATION":42.9996,"RA_OF_ASC_NODE":123.4929,"ARG_OF_PERICENTER":277.3599,"MEAN_ANOMALY":82.707,"EPHEMERIS_TYPE":0,"CLASSIFICATION_TYPE":"U","NORAD_CAT_ID":64001,"ELEMENT_SET_NO":999,"REV_AT_EPOCH":3391,"BSTAR":0.00059690911,"MEAN_MOTION_DOT":0.00016216,"MEAN_MOTION_DDOT":0},{"OBJECT_NAME":"STARLINK-33898","OBJECT_ID":"2025-101J","EPOCH":"2025-12-13T15:44:57.292224","MEAN_MOTION":15.27621957,"ECCENTRICITY":0.00012563,"INCLINATION":42.9998,"RA_OF_ASC_NODE":124.1706,"ARG_OF_PERICENTER":271.3035,"MEAN_ANOMALY":88.7673,"EPHEMERIS_TYPE":0,"CLASSIFICATION_TYPE":"U","NORAD_CAT_ID":64002,"ELEMENT_SET_NO":999,"REV_AT_EPOCH":3389,"BSTAR":0.0011043052,"MEAN_MOTION_DOT":0.0003029,"MEAN_MOTION_DDOT":0},{"OBJECT_NAME":"STARLINK-33928","OBJECT_ID":"2025-101K","EPOCH":"2025-12-14T01:26:19.361184","MEAN_MOTION":15.27594727,"ECCENTRICITY":6.709e-5,"INCLINATION":42.9971,"RA_OF_ASC_NODE":121.1769,"ARG_OF_PERICENTER":256.7719,"MEAN_ANOMALY":103.3058,"EPHEMERIS_TYPE":0,"CLASSIFICATION_TYPE":"U","NORAD_CAT_ID":64003,"ELEMENT_SET_NO":999,"REV_AT_EPOCH":3396,"BSTAR":0.00072636315,"MEAN_MOTION_DOT":0.00019789,"MEAN_MOTION_DDOT":0}]
